OBJECT_NAME,OBJECT_ID,EPOCH,MEAN_MOTION,ECCENTRICITY,INCLINATION,RA_OF_ASC_NODE,ARG_OF_PERICENTER,MEAN_ANOMALY,EPHEMERIS_TYPE,CLASSIFICATION_TYPE,NORAD_CAT_ID,ELEMENT_SET_NO,REV_AT_EPOCH,BSTAR,MEAN_MOTION_DOT,MEAN_MOTION_DDOT
ORBCOMM FM06,1997-084G,2026-06-13T01:28:52.874976,14.47553366,.00015393,45.0142,72.5721,318.6233,56.4827,0,U,25118,999,49379,.34863162E-3,.115E-4,0
ORBCOMM FM04,1998-007C,2026-06-13T15:10:10.317504,14.35735483,.00412316,107.9627,162.1023,330.8868,28.9975,0,U,25159,999,47608,.32275798E-3,.81E-5,0
ORBCOMM FM19,1998-046C,2026-06-13T12:47:27.737952,14.39490359,.00045035,44.9937,260.9319,266.7747,107.0672,0,U,25415,999,45625,.26267692E-3,.684E-5,0
ORBCOMM FM20,1998-046D,2026-06-12T23:36:28.808064,14.38061574,.00020546,44.9943,271.4189,236.4114,123.6538,0,U,25416,999,45618,.22433606E-3,.543E-5,0
ORBCOMM FM109,2014-040A,2026-06-11T03:21:25.345152,14.58838155,.00017501,47.0025,120.0774,230.5593,129.5138,0,U,40086,999,63346,.10777085E-3,.338E-5,0
ORBCOMM FM114,2015-081A,2026-06-13T06:43:33.452256,14.58854678,.00022521,47.0060,20.4759,192.2086,167.8745,0,U,41179,999,55718,.12794477E-3,.433E-5,0
ORBCOMM FM110,2015-081D,2026-06-13T08:05:32.974944,14.58875191,.00026259,47.0031,19.6466,52.5825,307.5299,0,U,41182,999,55706,.17476106E-3,.655E-5,0
ORBCOMM FM113,2015-081G,2026-06-12T01:13:53.961600,14.58853293,.0001998,47.0017,294.9070,204.7602,155.3188,0,U,41185,999,55818,.10704795E-3,.335E-5,0
ORBCOMM FM108,2015-081J,2026-06-13T09:12:13.186080,14.58866983,.00027346,47.0056,200.1825,209.5581,150.5151,0,U,41187,999,55952,.11596101E-3,.377E-5,0
ORBCOMM FM116,2015-081L,2026-06-13T14:28:55.964064,14.58878344,.00007226,47.0030,287.5669,35.5355,324.5579,0,U,41189,999,55841,.16446904E-3,.607E-5,0
